STARLINK-11567 [DTC]    
1 62909U 25027C   26157.16738169  .00272331  00000+0  20555-2 0  9990
2 62909  42.9995 174.6834 0001624 215.9690 144.1068 15.70857577 77060
STARLINK-11569 [DTC]    
1 62910U 25027D   26157.51701446  .00260529  00000+0  19612-2 0  9997
2 62910  43.0013 172.1300 0002690 270.2800  89.7759 15.70955817 77121
STARLINK-11537 [DTC]    
1 62911U 25027E   26157.33689165  .00213312  00000+0  16080-2 0  9995
2 62911  43.0008 173.3581 0002218 268.7697  91.2917 15.71069618 77133
STARLINK-11565 [DTC]    
1 62912U 25027F   26156.35129764  .00139549  00000+0  10743-2 0  9990
2 62912  43.0003 178.8554 0001191 262.1964  97.8769 15.70809054 76943
STARLINK-11564 [DTC]    
1 62913U 25027G   26157.34751096  .00282882  00000+0  21073-2 0  9997
2 62913  43.0010 173.4457 0000828 213.3804 146.7012 15.71138663 77096
STARLINK-11566 [DTC]    
1 62914U 25027H   26152.26617607 -.00002486  00000+0 -15866-4 0  9990
2 62914  42.9993 204.1498 0001205 260.4360  99.6371 15.70873569 76332
STARLINK-11555 [DTC]    
1 62915U 25027J   26156.33640914  .00144036  00000+0  11099-2 0  9998
2 62915  43.0015 179.6311 0001494 281.4986  78.5713 15.70769630 76976
STARLINK-11430 [DTC]    
1 62916U 25027K   26156.34611533  .00064522  00000+0  50209-3 0  9993
2 62916  42.9996 179.7071 0001214 272.4665  87.6064 15.70856182 76970
STARLINK-11560 [DTC]    
1 62917U 25027L   26157.33158123  .00307998  00000+0  22859-2 0  9991
2 62917  42.9984 173.3170 0002075 163.1738 196.9199 15.71151299 77096
STARLINK-11562 [DTC]    
1 62918U 25027M   26157.51170836  .00181874  00000+0  13844-2 0  9994
2 62918  42.9987 172.0860 0001386 289.9659  70.1059 15.70938096 77168
STARLINK-11457 [DTC]    
1 62919U 25027N   26157.50109229  .00205360  00000+0  15495-2 0  9993
2 62919  42.9997 171.9960 0001954 296.6864  63.3804 15.71072491 77120
STARLINK-32921          
1 62920U 25027P   26157.22161647  .00034233  00000+0  12471-2 0  9996
2 62920  43.0078 348.7526 0001640 325.6954  34.3792 15.27598494 75085
STARLINK-32917          
1 62921U 25027Q   26157.62806147  .00021907  00000+0  80258-3 0  9995
2 62921  43.0013 346.6464 0001312 262.7323  97.3380 15.27607116 75141
STARLINK-32916          
1 62922U 25027R   26157.22546979 -.00000281  00000+0 -71188-6 0  9995
2 62922  42.9995 348.7824 0000809 278.9954  81.0806 15.27577813 75087
STARLINK-32905          
1 62923U 25027S   26157.24731395  .00024574  00000+0  89877-3 0  9996
2 62923  43.0027 348.9532 0001526 276.9885  83.0793 15.27607793 75080
STARLINK-32871          
1 62924U 25027T   26157.23189349  .00026623  00000+0  97248-3 0  9990
2 62924  43.0083 348.8295 0000901 282.8478  77.2273 15.27614688 75087
STARLINK-32920          
1 62925U 25027U   26157.22804601  .00024079  00000+0  88114-3 0  9990
2 62925  43.0018 348.8015 0000439  21.8604 338.2266 15.27600666 75087
STARLINK-32922          
1 62926U 25027V   26157.24344896  .00033125  00000+0  12061-2 0  9997
2 62926  43.0069 348.9175 0003946 264.0317  96.0085 15.27623624 75087
STARLINK-32891          
1 62927U 25027W   26157.24988723  .00030817  00000+0  11243-2 0  9997
2 62927  43.0060 348.9719 0001562 259.0135 101.0541 15.27591527 75201
STARLINK-32728          
1 62948U 25029A   26153.29173745  .00028002  00000+0  95312-3 0  9996
2 62948  53.1567 197.1403 0001745  60.6713 299.4462 15.30229936 74347
STARLINK-32857          
1 62949U 25029B   26157.34255806  .00049165  00000+0  14553-2 0  9996
2 62949  53.1576 177.6447 0001256 107.7415 252.3725 15.34430949 74979
STARLINK-32850          
1 62950U 25029C   26157.32815328  .00023176  00000+0  75564-3 0  9991
2 62950  53.1589 180.3818 0001377  64.9214 295.1930 15.31727220 74907
STARLINK-32875          
1 62951U 25029D   26157.34045195  .00033204  00000+0  98879-3 0  9998
2 62951  53.1571 177.6238 0001317 101.7696 258.3454 15.34422741 74941
STARLINK-32865          
1 62952U 25029E   26157.32347310  .00043643  00000+0  14079-2 0  9998
2 62952  53.1588 180.3524 0001482  72.8455 287.2709 15.31746322 74904
STARLINK-32884          
1 62953U 25029F   26157.35308761  .00028978  00000+0  86505-3 0  9997
2 62953  53.1580 177.6968 0001458  74.7169 285.3994 15.34414620 74949
STARLINK-32874          
1 62954U 25029G   26157.34465959  .00033140  00000+0  98700-3 0  9997
2 62954  53.1572 177.6431 0001167  91.1810 268.9326 15.34420040 74948
STARLINK-32880          
1 62955U 25029H   26156.33538404  .00030811  00000+0  99995-3 0  9991
2 62955  53.1593 184.8518 0001228  53.5794 306.5321 15.31718661 74758
STARLINK-32815          
1 62956U 25029J   26156.39497143  .00027171  00000+0  81228-3 0  9997
2 62956  53.1591 182.3825 0000884 115.0722 245.0372 15.34403911 74792
STARLINK-32879          
1 62957U 25029K   26157.34681084  .00028380  00000+0  92204-3 0  9992
2 62957  53.1569 180.4990 0001154  88.5797 271.5337 15.31727564 74893
STARLINK-32885          
1 62958U 25029L   26157.35938716  .00039043  00000+0  11595-2 0  9992
2 62958  53.1589 177.7290 0001904  64.4292 295.6908 15.34432226 74931
