OBJECT_NAME,OBJECT_ID,EPOCH,MEAN_MOTION,ECCENTRICITY,INCLINATION,RA_OF_ASC_NODE,ARG_OF_PERICENTER,MEAN_ANOMALY,EPHEMERIS_TYPE,CLASSIFICATION_TYPE,NORAD_CAT_ID,ELEMENT_SET_NO,REV_AT_EPOCH,BSTAR,MEAN_MOTION_DOT,MEAN_MOTION_DDOT
STARLINK-11567 [DTC],2025-027C,2026-06-06T04:01:01.778016,15.70857577,.0001624,42.9995,174.6834,215.9690,144.1068,0,U,62909,999,7706,.20555E-2,.272331E-2,0
STARLINK-11569 [DTC],2025-027D,2026-06-06T12:24:30.049344,15.70955817,.00026907,43.0013,172.1300,270.2800,89.7759,0,U,62910,999,7712,.19612458E-2,.260529E-2,0
STARLINK-11537 [DTC],2025-027E,2026-06-06T08:05:07.438560,15.71069618,.00022182,43.0008,173.3581,268.7697,91.2917,0,U,62911,999,7713,.16079745E-2,.213312E-2,0
STARLINK-11565 [DTC],2025-027F,2026-06-05T08:25:52.116096,15.70809054,.00011913,43.0003,178.8554,262.1964,97.8769,0,U,62912,999,7694,.10742681E-2,.139549E-2,0
STARLINK-11564 [DTC],2025-027G,2026-06-06T08:20:24.946944,15.71138663,.00008289,43.0010,173.4457,213.3804,146.7012,0,U,62913,999,7709,.21072632E-2,.282882E-2,0
STARLINK-11566 [DTC],2025-027H,2026-06-01T06:23:17.612448,15.70873569,.00012058,42.9993,204.1498,260.4360,99.6371,0,U,62914,999,7633,-.15865786E-4,-.2486E-4,0
STARLINK-11555 [DTC],2025-027J,2026-06-05T08:04:25.749696,15.70769630,.0001494,43.0015,179.6311,281.4986,78.5713,0,U,62915,999,7697,.11099206E-2,.144036E-2,0
STARLINK-11430 [DTC],2025-027K,2026-06-05T08:18:24.364512,15.70856182,.0001214,42.9996,179.7071,272.4665,87.6064,0,U,62916,999,7697,.5020912E-3,.64522E-3,0
STARLINK-11560 [DTC],2025-027L,2026-06-06T07:57:28.618272,15.71151299,.00020752,42.9984,173.3170,163.1738,196.9199,0,U,62917,999,7709,.22858918E-2,.307998E-2,0
STARLINK-11562 [DTC],2025-027M,2026-06-06T12:16:51.602304,15.70938096,.00013864,42.9987,172.0860,289.9659,70.1059,0,U,62918,999,7716,.13843802E-2,.181874E-2,0
STARLINK-11457 [DTC],2025-027N,2026-06-06T12:01:34.373856,15.71072491,.00019547,42.9997,171.9960,296.6864,63.3804,0,U,62919,999,7712,.15494748E-2,.20536E-2,0
STARLINK-32921,2025-027P,2026-06-06T05:19:07.663008,15.27598494,.00016402,43.0078,348.7526,325.6954,34.3792,0,U,62920,999,7508,.12470579E-2,.34233E-3,0
STARLINK-32917,2025-027Q,2026-06-06T15:04:24.511008,15.27607116,.0001312,43.0013,346.6464,262.7323,97.3380,0,U,62921,999,7514,.80257796E-3,.21907E-3,0
STARLINK-32916,2025-027R,2026-06-06T05:24:40.589856,15.27577813,.00008091,42.9995,348.7824,278.9954,81.0806,0,U,62922,999,7508,-.711879E-6,-.281E-5,0
STARLINK-32905,2025-027S,2026-06-06T05:56:07.925280,15.27607793,.00015269,43.0027,348.9532,276.9885,83.0793,0,U,62923,999,7508,.89877062E-3,.24574E-3,0
STARLINK-32871,2025-027T,2026-06-06T05:33:55.597536,15.27614688,.00009011,43.0083,348.8295,282.8478,77.2273,0,U,62924,999,7508,.97247543E-3,.26623E-3,0
STARLINK-32920,2025-027U,2026-06-06T05:28:23.175264,15.27600666,.00004392,43.0018,348.8015,21.8604,338.2266,0,U,62925,999,7508,.88113809E-3,.24079E-3,0
STARLINK-32922,2025-027V,2026-06-06T05:50:33.990144,15.27623624,.00039461,43.0069,348.9175,264.0317,96.0085,0,U,62926,999,7508,.12060915E-2,.33125E-3,0
STARLINK-32891,2025-027W,2026-06-06T05:59:50.256672,15.27591527,.00015622,43.0060,348.9719,259.0135,101.0541,0,U,62927,999,7520,.11243397E-2,.30817E-3,0
STARLINK-32728,2025-029A,2026-06-02T07:00:06.115680,15.30229936,.00017456,53.1567,197.1403,60.6713,299.4462,0,U,62948,999,7434,.95311642E-3,.28002E-3,0
STARLINK-32857,2025-029B,2026-06-06T08:13:17.016384,15.34430949,.00012567,53.1576,177.6447,107.7415,252.3725,0,U,62949,999,7497,.14552963E-2,.49165E-3,0
STARLINK-32850,2025-029C,2026-06-06T07:52:32.443392,15.31727220,.00013774,53.1589,180.3818,64.9214,295.1930,0,U,62950,999,7490,.75564469E-3,.23176E-3,0
STARLINK-32875,2025-029D,2026-06-06T08:10:15.048480,15.34422741,.00013173,53.1571,177.6238,101.7696,258.3454,0,U,62951,999,7494,.9887937E-3,.33204E-3,0
STARLINK-32865,2025-029E,2026-06-06T07:45:48.075840,15.31746322,.00014821,53.1588,180.3524,72.8455,287.2709,0,U,62952,999,7490,.14079E-2,.43643E-3,0
STARLINK-32884,2025-029F,2026-06-06T08:28:26.769504,15.34414620,.00014584,53.1580,177.6968,74.7169,285.3994,0,U,62953,999,7494,.86505073E-3,.28978E-3,0
STARLINK-32874,2025-029G,2026-06-06T08:16:18.588576,15.34420040,.00011672,53.1572,177.6431,91.1810,268.9326,0,U,62954,999,7494,.98700399E-3,.3314E-3,0
STARLINK-32880,2025-029H,2026-06-05T08:02:57.181056,15.31718661,.00012284,53.1593,184.8518,53.5794,306.5321,0,U,62955,999,7475,.99995082E-3,.30811E-3,0
STARLINK-32815,2025-029J,2026-06-05T09:28:45.531552,15.34403911,.00008845,53.1591,182.3825,115.0722,245.0372,0,U,62956,999,7479,.81228247E-3,.27171E-3,0
STARLINK-32879,2025-029K,2026-06-06T08:19:24.456576,15.31727564,.00011543,53.1569,180.4990,88.5797,271.5337,0,U,62957,999,7489,.9220366E-3,.2838E-3,0
STARLINK-32885,2025-029L,2026-06-06T08:37:31.050624,15.34432226,.00019044,53.1589,177.7290,64.4292,295.6908,0,U,62958,999,7493,.1159472E-2,.39043E-3,0
